#aV2019 10  7  0  0  0.00000000     288 DD+AD WGS84 FIT  NGA
## 2074  86400.00000000   300.00000000 58763 0.0000000000000
+   31     1  2  3  5  6  7  8  9 10 11 12 13 14 15 16 17 18
+         19 20 21 22 23 24 25 26 27 28 29 30 31 32  0  0  0
+          0  0  0  0  0  0  0  0  0  0  0  0  0  0  0  0  0
+          0  0  0  0  0  0  0  0  0  0  0  0  0  0  0  0  0
+          0  0  0  0  0  0  0  0  0  0  0  0  0  0  0  0  0
++         2  2  2  2  2  2  2  2  2  2  2  2  2  2  2  2  2
++         2  2  2  2  2  2  2  2  2  2  2  2  2  2  0  0  0
++         0  0  0  0  0  0  0  0  0  0  0  0  0  0  0  0  0
++         0  0  0  0  0  0  0  0  0  0  0  0  0  0  0  0  0
++         0  0  0  0  0  0  0  0  0  0  0  0  0  0  0  0  0
%c cc cc ccc ccc cccc cccc cccc cccc ccccc ccccc ccccc ccccc
%c cc cc ccc ccc cccc cccc cccc cccc ccccc ccccc ccccc ccccc
%f  0.0000000  0.000000000  0.00000000000  0.000000000000000
%f  0.0000000  0.000000000  0.00000000000  0.000000000000000
%i    0    0    0    0      0      0      0      0         0
%i    0    0    0    0      0      0      0      0         0
/*      NGA, ST. LOUIS,MO.                                  
/*   EPHEMERIS COMPUTED FROM 2 DAYS OF DATA                 
/*   EPOCHA v5 SMOOTHER                                     
/*   G1762 IERS2010 SATAF SATAPC                            
*  2019 10  7 12 50  0.00000000
P  1  22238.219552  14055.515965   4530.538934   -154.222363                    
V  1   3356.183741   5308.651303 -31222.091635     -0.133418                    
P  2 -10112.092780 -19965.560978  15017.019250   -320.878437                    
V  2  15824.282475   8705.933919  23068.923330     -0.079707                    
P  3  13769.642217   7793.754005  21288.791030    -19.442643                    
V  3  -4634.032241  26748.831076  -6689.859978     -0.046172                    
P  5  -4212.761760 -24192.637454 -10002.969467     -2.095591                    
V  5   4430.419928 -12134.623295  28061.929329     -0.003534                    
P  6   4404.522185 -15037.935812  21482.927333    -82.309723                    
V  6  21563.138328  16483.414586   7155.804706     -0.128666                    
P  7  20400.974497   1230.772035 -16933.124101   -122.052237                    
V  7  15849.493059  15173.935210  19398.260392     -0.080265                    
P  8  15142.472297   8653.114895 -20058.715344     -9.085624                    
V  8 -23225.280520  10460.443252 -12792.043874     -0.013816                    
P  9  25251.287422  -6986.570674   4331.608485    -50.400815                    
V  9  -4014.241719   4890.328599  30936.534894     -0.099685                    
P 10 -11432.739331  20658.036053 -11882.130107    -84.324924                    
V 10   -182.318787 -15457.400155 -26771.983428     -0.155354                    
P 11  24388.223235   9201.569597  -4688.984271   -485.245802                    
V 11  -6280.353917   3174.670045 -30023.430144      0.112508                    
P 12 -10872.888363 -13199.965137  20153.102108    196.490572                    
V 12   6464.775740 -25163.036730 -12700.885264     -0.038509                    
P 13  -5136.185999 -14258.549166 -21930.620647    -40.212273                    
V 13  26668.091526  -6877.659886  -1717.470688      0.021471                    
P 14  -9427.474265  16549.867549  18762.217537    -57.404389                    
V 14 -22649.493389   5310.601936 -16531.081999      0.020384                    
P 15 -16995.077231  -7599.291565 -19359.789782   -281.613095                    
V 15  20737.345974 -12121.738467 -13256.971315      0.027318                    
P 16    131.175044  24834.942277  -8961.158500    -81.037786                    
V 16  -4863.413708  10364.438207  29690.697260     -0.035754                    
P 17  18292.684361 -14835.850217  12608.328129    139.711274                    
V 17  15084.482100  -3231.595665 -26649.655584      0.072376                    
P 18  19392.372760  17790.296572  -4465.905556     91.299235                    
V 18  -5713.465015   -671.126265 -30908.069525      0.027586                    
P 19  13099.684476 -15391.029408  16948.435906   -257.026072                    
V 19  21613.928908  -4547.034445 -20451.162407      0.052332                    
P 20 -14300.085103  12173.983635 -18817.088036    527.125118                    
V 20  -1239.062732 -23882.959430 -14774.018267      0.001158                    
P 21 -17614.029105   3915.203763 -18638.362767   -106.331412                    
V 21 -19795.875105 -16086.637148  14905.668591      0.063024                    
P 22  12377.808854  15406.839421  18006.670102   -761.834755                    
V 22  -3611.070158  22301.436549 -16708.017538     -0.033443                    
P 23  22691.267631   1819.435713  14342.630308   -162.781865                    
V 23 -15348.496750   8719.033993  23363.360979      0.021231                    
P 24 -22478.653739 -14364.685375   1837.042532     -3.106311                    
V 24   -166.132998  -4097.892515 -30896.975495     -0.005546                    
P 25 -15264.590071   2865.335744  21299.593442    -14.711636                    
V 25   3571.557178 -27338.040754   6424.514369     -0.010805                    
P 26  -4445.030679  26021.846234   1721.705194     56.080975                    
V 26  -3037.268771  -2610.783684  31527.753624      0.086525                    
P 27   2181.035800  14974.581200 -21912.746881    -79.822621                    
V 27 -25774.016652   9688.879402   4371.922409     -0.122835                    
P 28  12435.555857 -20680.554895 -10608.946051    759.861226                    
V 28  -1489.933257  14385.831973 -28084.864734     -0.013441                    
P 29 -25543.318687   3727.649622   6277.014173     77.726865                    
V 29   7036.952683  -4237.775009  30963.570989     -0.102022                    
P 30  12851.715634  -9399.229641 -21243.786655    -56.478677                    
V 30  20250.395016  18029.503302   4072.383966     -0.081017                    
P 31  -3213.754791  16253.899951  20647.855351      5.295998                    
V 31 -20839.286319 -16179.434092   9932.464309     -0.025809                    
P 32 -17585.774969  15979.630990  11796.364569     83.163347                    
V 32 -14815.712864   3184.431034 -26662.168819      0.131151                    
EOF
